start=new Date('2021-11-12T00:00:00.000Z').valueOf();
sats=[{"OBJECT_TYPE":"PAYLOAD","TLE_LINE1":"1 45191U 20012P   21315.80520998 -.00000106  00000-0  11818-4 0  9999","GP_ID":"189525592","COUNTRY_CODE":"US","MEAN_ELEMENT_THEORY":"SGP4","BSTAR":"0.00001181800000","PERIAPSIS":"546.113","TLE_LINE2":"2 45191  53.0534 294.5146 0001603  66.5990 293.5167 15.06396965 94071","LAUNCH_DATE":"2020-02-17","OBJECT_ID":"2020-012P","EPHEMERIS_TYPE":"0","MEAN_ANOMALY":"293.5167","NORAD_CAT_ID":"45191","FILE":"3212485","CLASSIFICATION_TYPE":"U","DECAY_DATE":null,"OBJECT_NAME":"STARLINK-1236","ECCENTRICITY":"0.00016030","ARG_OF_PERICENTER":"66.5990","MEAN_MOTION_DDOT":"0.0000000000000","MEAN_MOTION":"15.06396965","REF_FRAME":"TEME","SITE":"AFETR","RA_OF_ASC_NODE":"294.5146","MEAN_MOTION_DOT":"-0.00000106","CENTER_NAME":"EARTH","INCLINATION":"53.0534","TIME_SYSTEM":"UTC","RCS_SIZE":"LARGE","EPOCH":"2021-11-11T19:19:30.142272","SEMIMAJOR_AXIS":"6925.358","ELEMENT_SET_NO":"999","REV_AT_EPOCH":"9407","APOAPSIS":"548.333","PERIOD":"95.592"},{"CENTER_NAME":"EARTH","MEAN_MOTION_DOT":"-0.00001261","SITE":"AFETR","RA_OF_ASC_NODE":"294.0343","ARG_OF_PERICENTER":"65.7559","MEAN_MOTION_DDOT":"0.0000000000000","REF_FRAME":"TEME","MEAN_MOTION":"15.06398655","DECAY_DATE":null,"OBJECT_NAME":"STARLINK-1237","ECCENTRICITY":"0.00016060","PERIOD":"95.592","ELEMENT_SET_NO":"999","SEMIMAJOR_AXIS":"6925.353","APOAPSIS":"548.330","REV_AT_EPOCH":"9688","RCS_SIZE":"LARGE","EPOCH":"2021-11-11T21:53:25.938528","INCLINATION":"53.0529","TIME_SYSTEM":"UTC","PERIAPSIS":"546.105","TLE_LINE2":"2 45192  53.0529 294.0343 0001606  65.7559 294.3597 15.06398655 96880","MEAN_ELEMENT_THEORY":"SGP4","BSTAR":"-0.00006579100000","COUNTRY_CODE":"US","TLE_LINE1":"1 45192U 20012Q   21315.91210577 -.00001261  00000-0 -65791-4 0  9994","GP_ID":"189525843","OBJECT_TYPE":"PAYLOAD","CLASSIFICATION_TYPE":"U","NORAD_CAT_ID":"45192","MEAN_ANOMALY":"294.3597","FILE":"3212485","EPHEMERIS_TYPE":"0","OBJECT_ID":"2020-012Q","LAUNCH_DATE":"2020-02-17"},{"EPHEMERIS_TYPE":"0","OBJECT_ID":"2020-012R","CLASSIFICATION_TYPE":"U","NORAD_CAT_ID":"45193","MEAN_ANOMALY":"293.7031","FILE":"3212088","LAUNCH_DATE":"2020-02-17","COUNTRY_CODE":"US","PERIAPSIS":"546.014","TLE_LINE2":"2 45193  53.0538 296.1615 0001704  66.4137 293.7031 15.06406244 96751","BSTAR":"0.00006674600000","MEAN_ELEMENT_THEORY":"SGP4","OBJECT_TYPE":"PAYLOAD","TLE_LINE1":"1 45193U 20012R   21315.43662589  .00000713  00000-0  66746-4 0  9996","GP_ID":"189492558","ELEMENT_SET_NO":"999","SEMIMAJOR_AXIS":"6925.329","APOAPSIS":"548.374","REV_AT_EPOCH":"9675","PERIOD":"95.592","TIME_SYSTEM":"UTC","INCLINATION":"53.0538","RCS_SIZE":"LARGE","EPOCH":"2021-11-11T10:28:44.476896","CENTER_NAME":"EARTH","MEAN_MOTION_DOT":"0.00000713","OBJECT_NAME":"STARLINK-1239","DECAY_DATE":null,"ECCENTRICITY":"0.00017040","SITE":"AFETR","RA_OF_ASC_NODE":"296.1615","MEAN_MOTION_DDOT":"0.0000000000000","ARG_OF_PERICENTER":"66.4137","REF_FRAME":"TEME","MEAN_MOTION":"15.06406244"},{"TLE_LINE2":"2 45194  53.0556 295.2541 0001452  74.5339 285.5810 15.06392159 96735","PERIAPSIS":"546.232","MEAN_ELEMENT_THEORY":"SGP4","BSTAR":"-0.00012331000000","COUNTRY_CODE":"US","GP_ID":"189524841","TLE_LINE1":"1 45194U 20012S   21315.63934301 -.00002117  00000-0 -12331-3 0  9995","OBJECT_TYPE":"PAYLOAD","CLASSIFICATION_TYPE":"U","FILE":"3212485","MEAN_ANOMALY":"285.5810","NORAD_CAT_ID":"45194","EPHEMERIS_TYPE":"0","OBJECT_ID":"2020-012S","LAUNCH_DATE":"2020-02-17","CENTER_NAME":"EARTH","MEAN_MOTION_DOT":"-0.00002117","SITE":"AFETR","RA_OF_ASC_NODE":"295.2541","REF_FRAME":"TEME","MEAN_MOTION":"15.06392159","MEAN_MOTION_DDOT":"0.0000000000000","ARG_OF_PERICENTER":"74.5339","DECAY_DATE":null,"OBJECT_NAME":"STARLINK-1240","ECCENTRICITY":"0.00014520","PERIOD":"95.593","APOAPSIS":"548.243","REV_AT_EPOCH":"9673","SEMIMAJOR_AXIS":"6925.373","ELEMENT_SET_NO":"999","EPOCH":"2021-11-11T15:20:39.236064","RCS_SIZE":"LARGE","INCLINATION":"53.0556","TIME_SYSTEM":"UTC"},{"BSTAR":"0.00003363300000","MEAN_ELEMENT_THEORY":"SGP4","PERIAPSIS":"546.143","TLE_LINE2":"2 45195  53.0541 296.1810 0001524  70.4330 289.6824 15.06404887 96805","COUNTRY_CODE":"US","TLE_LINE1":"1 45195U 20012T   21315.43293610  .00000220  00000-0  33633-4 0  9995","GP_ID":"189491556","OBJECT_TYPE":"PAYLOAD","NORAD_CAT_ID":"45195","MEAN_ANOMALY":"289.6824","FILE":"3212088","CLASSIFICATION_TYPE":"U","OBJECT_ID":"2020-012T","EPHEMERIS_TYPE":"0","LAUNCH_DATE":"2020-02-17","MEAN_MOTION_DOT":"0.00000220","CENTER_NAME":"EARTH","ARG_OF_PERICENTER":"70.4330","MEAN_MOTION_DDOT":"0.0000000000000","REF_FRAME":"TEME","MEAN_MOTION":"15.06404887","SITE":"AFETR","RA_OF_ASC_NODE":"296.1810","DECAY_DATE":null,"OBJECT_NAME":"STARLINK-1241","ECCENTRICITY":"0.00015240","PERIOD":"95.592","ELEMENT_SET_NO":"999","SEMIMAJOR_AXIS":"6925.334","APOAPSIS":"548.254","REV_AT_EPOCH":"9680","RCS_SIZE":"LARGE","EPOCH":"2021-11-11T10:23:25.679040","INCLINATION":"53.0541","TIME_SYSTEM":"UTC"},{"TLE_LINE1":"1 45196U 20012U   21315.42186302  .00001343  00000-0  10899-3 0  9999","GP_ID":"189492308","OBJECT_TYPE":"PAYLOAD","PERIAPSIS":"546.071","TLE_LINE2":"2 45196  53.0531 296.2255 0001617  69.5093 290.6070 15.06407378 96855","MEAN_ELEMENT_THEORY":"SGP4","BSTAR":"0.00010899000000","COUNTRY_CODE":"US","LAUNCH_DATE":"2020-02-17","CLASSIFICATION_TYPE":"U","NORAD_CAT_ID":"45196","MEAN_ANOMALY":"290.6070","FILE":"3212088","EPHEMERIS_TYPE":"0","OBJECT_ID":"2020-012U","RA_OF_ASC_NODE":"296.2255","SITE":"AFETR","MEAN_MOTION_DDOT":"0.0000000000000","ARG_OF_PERICENTER":"69.5093","REF_FRAME":"TEME","MEAN_MOTION":"15.06407378","DECAY_DATE":null,"OBJECT_NAME":"STARLINK-1244","ECCENTRICITY":"0.00016170","CENTER_NAME":"EARTH","MEAN_MOTION_DOT":"0.00001343","RCS_SIZE":"LARGE","EPOCH":"2021-11-11T10:07:28.964928","INCLINATION":"53.0531","TIME_SYSTEM":"UTC","PERIOD":"95.592","ELEMENT_SET_NO":"999","SEMIMAJOR_AXIS":"6925.326","REV_AT_EPOCH":"9685","APOAPSIS":"548.311"},{"OBJECT_TYPE":"PAYLOAD","GP_ID":"189524094","TLE_LINE1":"1 45197U 20012V   21315.67620610 -.00002199  00000-0 -12878-3 0  9993","COUNTRY_CODE":"US","TLE_LINE2":"2 45197  53.0549 295.0840 0001676  70.9211 289.1959 15.06396851 96813","PERIAPSIS":"546.063","MEAN_ELEMENT_THEORY":"SGP4","BSTAR":"-0.00012878000000","LAUNCH_DATE":"2020-02-17","EPHEMERIS_TYPE":"0","OBJECT_ID":"2020-012V","CLASSIFICATION_TYPE":"U","FILE":"3212485","NORAD_CAT_ID":"45197","MEAN_ANOMALY":"289.1959","OBJECT_NAME":"STARLINK-1269","DECAY_DATE":null,"ECCENTRICITY":"0.00016760","RA_OF_ASC_NODE":"295.0840","SITE":"AFETR","MEAN_MOTION":"15.06396851","REF_FRAME":"TEME","MEAN_MOTION_DDOT":"0.0000000000000","ARG_OF_PERICENTER":"70.9211","CENTER_NAME":"EARTH","MEAN_MOTION_DOT":"-0.00002199","INCLINATION":"53.0549","TIME_SYSTEM":"UTC","EPOCH":"2021-11-11T16:13:44.207040","RCS_SIZE":"LARGE","APOAPSIS":"548.384","REV_AT_EPOCH":"9681","ELEMENT_SET_NO":"999","SEMIMAJOR_AXIS":"6925.358","PERIOD":"95.592"},{"OBJECT_NAME":"STARLINK-1154","DECAY_DATE":null,"ECCENTRICITY":"0.00017270","MEAN_MOTION_DDOT":"0.0000000000000","ARG_OF_PERICENTER":"69.0187","REF_FRAME":"TEME","MEAN_MOTION":"15.06406206","SITE":"AFETR","RA_OF_ASC_NODE":"274.2439","MEAN_MOTION_DOT":"0.00000989","CENTER_NAME":"EARTH","TIME_SYSTEM":"UTC","INCLINATION":"53.0526","RCS_SIZE":"LARGE","EPOCH":"2021-11-11T20:47:04.466688","SEMIMAJOR_AXIS":"6925.330","ELEMENT_SET_NO":"999","APOAPSIS":"548.391","REV_AT_EPOCH":"9709","PERIOD":"95.592","OBJECT_TYPE":"PAYLOAD","TLE_LINE1":"1 45198U 20012W   21315.86602392  .00000989  00000-0  85252-4 0  9992","GP_ID":"189524344","COUNTRY_CODE":"US","MEAN_ELEMENT_THEORY":"SGP4","BSTAR":"0.00008525200000","PERIAPSIS":"545.999","TLE_LINE2":"2 45198  53.0526 274.2439 0001727  69.0187 291.0987 15.06406206 97090","LAUNCH_DATE":"2020-02-17","OBJECT_ID":"2020-012W","EPHEMERIS_TYPE":"0","NORAD_CAT_ID":"45198","MEAN_ANOMALY":"291.0987","FILE":"3212485","CLASSIFICATION_TYPE":"U"},{"INCLINATION":"53.0523","TIME_SYSTEM":"UTC","RCS_SIZE":"LARGE","EPOCH":"2021-11-11T14:30:13.470912","SEMIMAJOR_AXIS":"6925.357","ELEMENT_SET_NO":"999","APOAPSIS":"548.359","REV_AT_EPOCH":"9711","PERIOD":"95.592","DECAY_DATE":null,"OBJECT_NAME":"STARLINK-1197","ECCENTRICITY":"0.00016420","SITE":"AFETR","RA_OF_ASC_NODE":"275.4184","ARG_OF_PERICENTER":"60.4408","MEAN_MOTION_DDOT":"0.0000000000000","MEAN_MOTION":"15.06397363","REF_FRAME":"TEME","CENTER_NAME":"EARTH","MEAN_MOTION_DOT":"-0.00000395","LAUNCH_DATE":"2020-02-17","EPHEMERIS_TYPE":"0","OBJECT_ID":"2020-012X","CLASSIFICATION_TYPE":"U","NORAD_CAT_ID":"45199","MEAN_ANOMALY":"299.6744","FILE":"3212485","OBJECT_TYPE":"PAYLOAD","TLE_LINE1":"1 45199U 20012X   21315.60432258 -.00000395  00000-0 -76057-5 0  9994","GP_ID":"189525593","COUNTRY_CODE":"US","PERIAPSIS":"546.084","TLE_LINE2":"2 45199  53.0523 275.4184 0001642  60.4408 299.6744 15.06397363 97116","BSTAR":"-0.00000760570000","MEAN_ELEMENT_THEORY":"SGP4"},{"OBJECT_ID":"2020-012Z","EPHEMERIS_TYPE":"0","MEAN_ANOMALY":"286.7379","NORAD_CAT_ID":"45201","FILE":"3212485","CLASSIFICATION_TYPE":"U","LAUNCH_DATE":"2020-02-17","COUNTRY_CODE":"US","MEAN_ELEMENT_THEORY":"SGP4","BSTAR":"0.00027637000000","PERIAPSIS":"546.140","TLE_LINE2":"2 45201  53.0542 275.3846 0001509  73.3775 286.7379 15.06409329 97114","OBJECT_TYPE":"PAYLOAD","TLE_LINE1":"1 45201U 20012Z   21315.61169383  .00003838  00000-0  27637-3 0  9996","GP_ID":"189525844","SEMIMAJOR_AXIS":"6925.320","ELEMENT_SET_NO":"999","REV_AT_EPOCH":"9711","APOAPSIS":"548.230","PERIOD":"95.592","TIME_SYSTEM":"UTC","INCLINATION":"53.0542","RCS_SIZE":"LARGE","EPOCH":"2021-11-11T14:40:50.346912","MEAN_MOTION_DOT":"0.00003838","CENTER_NAME":"EARTH","DECAY_DATE":null,"OBJECT_NAME":"STARLINK-1199","ECCENTRICITY":"0.00015090","MEAN_MOTION_DDOT":"0.0000000000000","ARG_OF_PERICENTER":"73.3775","REF_FRAME":"TEME","MEAN_MOTION":"15.06409329","SITE":"AFETR","RA_OF_ASC_NODE":"275.3846"}];
